CCSDS_OMM_VERS = 2.0
CREATION_DATE  = 
ORIGINATOR     = 

OBJECT_NAME    = CZ-2C R/B
OBJECT_ID      = 2022-132E
CENTER_NAME    = EARTH
REF_FRAME      = TEME
TIME_SYSTEM    = UTC
MEAN_ELEMENT_THEORY = SGP/SGP4

EPOCH          = 2026-01-27T12:16:12.007776
MEAN_MOTION    = 15.58241456
ECCENTRICITY   = .00167397
INCLINATION    = 97.2953
RA_OF_ASC_NODE = 29.6999
ARG_OF_PERICENTER = 239.3086
MEAN_ANOMALY   = 120.6521

EPHEMERIS_TYPE = 0
CLASSIFICATION_TYPE = U
NORAD_CAT_ID   = 54039
ELEMENT_SET_NO = 999
REV_AT_EPOCH   = 18395
BSTAR          = .58880517E-3
MEAN_MOTION_DOT = .44857E-3
MEAN_MOTION_DDOT = 0

CCSDS_OMM_VERS = 2.0
CREATION_DATE  = 
ORIGINATOR     = 

OBJECT_NAME    = GSLV R/B
OBJECT_ID      = 2022-138AN
CENTER_NAME    = EARTH
REF_FRAME      = TEME
TIME_SYSTEM    = UTC
MEAN_ELEMENT_THEORY = SGP/SGP4

EPOCH          = 2026-01-27T11:11:39.954624
MEAN_MOTION    = 14.96444031
ECCENTRICITY   = .00197428
INCLINATION    = 87.3844
RA_OF_ASC_NODE = 180.1580
ARG_OF_PERICENTER = 305.0965
MEAN_ANOMALY   = 54.8415

EPHEMERIS_TYPE = 0
CLASSIFICATION_TYPE = U
NORAD_CAT_ID   = 54149
ELEMENT_SET_NO = 999
REV_AT_EPOCH   = 17776
BSTAR          = .42839857E-3
MEAN_MOTION_DOT = .4903E-4
MEAN_MOTION_DDOT = 0

CCSDS_OMM_VERS = 2.0
CREATION_DATE  = 
ORIGINATOR     = 

OBJECT_NAME    = XRISM
OBJECT_ID      = 2023-137A
CENTER_NAME    = EARTH
REF_FRAME      = TEME
TIME_SYSTEM    = UTC
MEAN_ELEMENT_THEORY = SGP/SGP4

EPOCH          = 2026-01-27T13:23:56.252544
MEAN_MOTION    = 15.10955364
ECCENTRICITY   = .00080515
INCLINATION    = 31.0007
RA_OF_ASC_NODE = 189.5915
ARG_OF_PERICENTER = 347.2216
MEAN_ANOMALY   = 12.8218

EPHEMERIS_TYPE = 0
CLASSIFICATION_TYPE = U
NORAD_CAT_ID   = 57800
ELEMENT_SET_NO = 999
REV_AT_EPOCH   = 13156
BSTAR          = .50524408E-3
MEAN_MOTION_DOT = .8743E-4
MEAN_MOTION_DDOT = 0

CCSDS_OMM_VERS = 2.0
CREATION_DATE  = 
ORIGINATOR     = 

OBJECT_NAME    = ACS3
OBJECT_ID      = 2024-077B
CENTER_NAME    = EARTH
REF_FRAME      = TEME
TIME_SYSTEM    = UTC
MEAN_ELEMENT_THEORY = SGP/SGP4

EPOCH          = 2026-01-27T10:18:04.726368
MEAN_MOTION    = 13.87832752
ECCENTRICITY   = .00484236
INCLINATION    = 97.2307
RA_OF_ASC_NODE = 337.8136
ARG_OF_PERICENTER = 212.6904
MEAN_ANOMALY   = 147.1260

EPHEMERIS_TYPE = 0
CLASSIFICATION_TYPE = U
NORAD_CAT_ID   = 59588
ELEMENT_SET_NO = 999
REV_AT_EPOCH   = 8847
BSTAR          = .19605241E-1
MEAN_MOTION_DOT = .23532E-3
MEAN_MOTION_DDOT = 0

CCSDS_OMM_VERS = 2.0
CREATION_DATE  = 
ORIGINATOR     = 

OBJECT_NAME    = SZ-21 MODULE
OBJECT_ID      = 2025-246C
CENTER_NAME    = EARTH
REF_FRAME      = TEME
TIME_SYSTEM    = UTC
MEAN_ELEMENT_THEORY = SGP/SGP4

EPOCH          = 2026-01-27T13:59:02.390784
MEAN_MOTION    = 15.65450528
ECCENTRICITY   = .00032623
INCLINATION    = 41.4754
RA_OF_ASC_NODE = 95.8080
ARG_OF_PERICENTER = 246.4687
MEAN_ANOMALY   = 113.5811

EPHEMERIS_TYPE = 0
CLASSIFICATION_TYPE = U
NORAD_CAT_ID   = 66515
ELEMENT_SET_NO = 999
REV_AT_EPOCH   = 1162
BSTAR          = .37527426E-3
MEAN_MOTION_DOT = .38475E-3
MEAN_MOTION_DDOT = 0

