CZ-2C R/B               
1 54039U 22132E   26027.51125009  .00044857  00000+0  58881-3 0  9991
2 54039  97.2953  29.6999 0016739 239.3086 120.6521 15.58241456183953
GSLV R/B                
1 54149U 22138AN  26027.46643466  .00004903  00000+0  42840-3 0  9991
2 54149  87.3844 180.1580 0019742 305.0965  54.8415 14.96444031177764
XRISM                   
1 57800U 23137A   26027.55828996  .00008743  00000+0  50524-3 0  9995
2 57800  31.0007 189.5915 0008051 347.2216  12.8218 15.10955364131567
ACS3                    
1 59588U 24077B   26027.42922137  .00023532  00000+0  19605-1 0  9998
2 59588  97.2307 337.8136 0048423 212.6904 147.1260 13.87832752 88475
SZ-21 MODULE            
1 66515U 25246C   26027.58266655  .00038475  00000+0  37527-3 0  9995
2 66515  41.4754  95.8080 0003262 246.4687 113.5811 15.65450528 11621
